[{"OBJECT_NAME":"ONEWEB-0134","OBJECT_ID":"2020-100Y","EPOCH":"2026-03-09T20:45:10.456704","MEAN_MOTION":13.12443425,"ECCENTRICITY":0.00019999,"INCLINATION":87.9009,"RA_OF_ASC_NODE":10.3526,"ARG_OF_PERICENTER":85.5644,"MEAN_ANOMALY":274.5713,"EPHEMERIS_TYPE":0,"CLASSIFICATION_TYPE":"U","NORAD_CAT_ID":47280,"ELEMENT_SET_NO":999,"REV_AT_EPOCH":25168,"BSTAR":-0.0010293051,"MEAN_MOTION_DOT":-3.58e-6,"MEAN_MOTION_DDOT":0},{"OBJECT_NAME":"CZ-4B DEB","OBJECT_ID":"1999-057AN","EPOCH":"2026-03-09T00:07:55.037568","MEAN_MOTION":13.384236,"ECCENTRICITY":0.05193802,"INCLINATION":99.1393,"RA_OF_ASC_NODE":85.8178,"ARG_OF_PERICENTER":200.0842,"MEAN_ANOMALY":187.8156,"EPHEMERIS_TYPE":0,"CLASSIFICATION_TYPE":"U","NORAD_CAT_ID":26152,"ELEMENT_SET_NO":999,"REV_AT_EPOCH":26470,"BSTAR":0.00052776242,"MEAN_MOTION_DOT":5.77e-6,"MEAN_MOTION_DDOT":0}]
